<?xml version="1.0" encoding="UTF-8"?>
<ndm xmlns:xsi="http://www.w3.org/2001/XMLSchema-instance" xsi:noNamespaceSchemaLocation="https://sanaregistry.org/r/ndmxml_unqualified/ndmxml-2.0.0-master-2.0.xsd">
<omm id="CCSDS_OMM_VERS" version="2.0">
<header><CREATION_DATE/><ORIGINATOR/></header><body><segment><metadata><OBJECT_NAME>KUIPER-00095</OBJECT_NAME><OBJECT_ID>2025-171C</OBJECT_ID><CENTER_NAME>EARTH</CENTER_NAME><REF_FRAME>TEME</REF_FRAME><TIME_SYSTEM>UTC</TIME_SYSTEM><MEAN_ELEMENT_THEORY>SGP4</MEAN_ELEMENT_THEORY></metadata><data><meanElements><EPOCH>2025-12-21T15:47:12.902208</EPOCH><MEAN_MOTION>14.95813443</MEAN_MOTION><ECCENTRICITY>.0004904</ECCENTRICITY><INCLINATION>51.8913</INCLINATION><RA_OF_ASC_NODE>134.9857</RA_OF_ASC_NODE><ARG_OF_PERICENTER>220.8975</ARG_OF_PERICENTER><MEAN_ANOMALY>139.1627</MEAN_ANOMALY></meanElements><tleParameters><EPHEMERIS_TYPE>0</EPHEMERIS_TYPE><CLASSIFICATION_TYPE>U</CLASSIFICATION_TYPE><NORAD_CAT_ID>65134</NORAD_CAT_ID><ELEMENT_SET_NO>999</ELEMENT_SET_NO><REV_AT_EPOCH>2145</REV_AT_EPOCH><BSTAR>.50173E-3</BSTAR><MEAN_MOTION_DOT>.541E-4</MEAN_MOTION_DOT><MEAN_MOTION_DDOT>0</MEAN_MOTION_DDOT></tleParameters></data></segment></body></omm>
<omm id="CCSDS_OMM_VERS" version="2.0">
<header><CREATION_DATE/><ORIGINATOR/></header><body><segment><metadata><OBJECT_NAME>KUIPER-00096</OBJECT_NAME><OBJECT_ID>2025-171D</OBJECT_ID><CENTER_NAME>EARTH</CENTER_NAME><REF_FRAME>TEME</REF_FRAME><TIME_SYSTEM>UTC</TIME_SYSTEM><MEAN_ELEMENT_THEORY>SGP4</MEAN_ELEMENT_THEORY></metadata><data><meanElements><EPOCH>2025-12-21T19:34:17.797728</EPOCH><MEAN_MOTION>14.79932677</MEAN_MOTION><ECCENTRICITY>.00103765</ECCENTRICITY><INCLINATION>51.8987</INCLINATION><RA_OF_ASC_NODE>142.4455</RA_OF_ASC_NODE><ARG_OF_PERICENTER>246.2900</ARG_OF_PERICENTER><MEAN_ANOMALY>113.6974</MEAN_ANOMALY></meanElements><tleParameters><EPHEMERIS_TYPE>0</EPHEMERIS_TYPE><CLASSIFICATION_TYPE>U</CLASSIFICATION_TYPE><NORAD_CAT_ID>65135</NORAD_CAT_ID><ELEMENT_SET_NO>999</ELEMENT_SET_NO><REV_AT_EPOCH>2136</REV_AT_EPOCH><BSTAR>.23238968E-2</BSTAR><MEAN_MOTION_DOT>.17554E-3</MEAN_MOTION_DOT><MEAN_MOTION_DDOT>0</MEAN_MOTION_DDOT></tleParameters></data></segment></body></omm>
<omm id="CCSDS_OMM_VERS" version="2.0">
<header><CREATION_DATE/><ORIGINATOR/></header><body><segment><metadata><OBJECT_NAME>KUIPER-00097</OBJECT_NAME><OBJECT_ID>2025-171E</OBJECT_ID><CENTER_NAME>EARTH</CENTER_NAME><REF_FRAME>TEME</REF_FRAME><TIME_SYSTEM>UTC</TIME_SYSTEM><MEAN_ELEMENT_THEORY>SGP4</MEAN_ELEMENT_THEORY></metadata><data><meanElements><EPOCH>2025-12-22T03:36:28.590624</EPOCH><MEAN_MOTION>14.79942775</MEAN_MOTION><ECCENTRICITY>.00097731</ECCENTRICITY><INCLINATION>51.9001</INCLINATION><RA_OF_ASC_NODE>143.5794</RA_OF_ASC_NODE><ARG_OF_PERICENTER>251.4080</ARG_OF_PERICENTER><MEAN_ANOMALY>108.5821</MEAN_ANOMALY></meanElements><tleParameters><EPHEMERIS_TYPE>0</EPHEMERIS_TYPE><CLASSIFICATION_TYPE>U</CLASSIFICATION_TYPE><NORAD_CAT_ID>65136</NORAD_CAT_ID><ELEMENT_SET_NO>999</ELEMENT_SET_NO><REV_AT_EPOCH>2136</REV_AT_EPOCH><BSTAR>.45922464E-3</BSTAR><MEAN_MOTION_DOT>.3283E-4</MEAN_MOTION_DOT><MEAN_MOTION_DDOT>0</MEAN_MOTION_DDOT></tleParameters></data></segment></body></omm>
<omm id="CCSDS_OMM_VERS" version="2.0">
<header><CREATION_DATE/><ORIGINATOR/></header><body><segment><metadata><OBJECT_NAME>KUIPER-00098</OBJECT_NAME><OBJECT_ID>2025-171F</OBJECT_ID><CENTER_NAME>EARTH</CENTER_NAME><REF_FRAME>TEME</REF_FRAME><TIME_SYSTEM>UTC</TIME_SYSTEM><MEAN_ELEMENT_THEORY>SGP4</MEAN_ELEMENT_THEORY></metadata><data><meanElements><EPOCH>2025-12-21T19:26:34.139904</EPOCH><MEAN_MOTION>14.79884781</MEAN_MOTION><ECCENTRICITY>.0007081</ECCENTRICITY><INCLINATION>51.8977</INCLINATION><RA_OF_ASC_NODE>147.4718</RA_OF_ASC_NODE><ARG_OF_PERICENTER>226.9466</ARG_OF_PERICENTER><MEAN_ANOMALY>133.0904</MEAN_ANOMALY></meanElements><tleParameters><EPHEMERIS_TYPE>0</EPHEMERIS_TYPE><CLASSIFICATION_TYPE>U</CLASSIFICATION_TYPE><NORAD_CAT_ID>65137</NORAD_CAT_ID><ELEMENT_SET_NO>999</ELEMENT_SET_NO><REV_AT_EPOCH>2063</REV_AT_EPOCH><BSTAR>.73867049E-3</BSTAR><MEAN_MOTION_DOT>.5409E-4</MEAN_MOTION_DOT><MEAN_MOTION_DDOT>0</MEAN_MOTION_DDOT></tleParameters></data></segment></body></omm>
<omm id="CCSDS_OMM_VERS" version="2.0">
<header><CREATION_DATE/><ORIGINATOR/></header><body><segment><metadata><OBJECT_NAME>KUIPER-00099</OBJECT_NAME><OBJECT_ID>2025-171G</OBJECT_ID><CENTER_NAME>EARTH</CENTER_NAME><REF_FRAME>TEME</REF_FRAME><TIME_SYSTEM>UTC</TIME_SYSTEM><MEAN_ELEMENT_THEORY>SGP4</MEAN_ELEMENT_THEORY></metadata><data><meanElements><EPOCH>2025-12-22T02:59:34.489536</EPOCH><MEAN_MOTION>14.79890499</MEAN_MOTION><ECCENTRICITY>.00010323</ECCENTRICITY><INCLINATION>51.9014</INCLINATION><RA_OF_ASC_NODE>136.0443</RA_OF_ASC_NODE><ARG_OF_PERICENTER>123.4523</ARG_OF_PERICENTER><MEAN_ANOMALY>236.6538</MEAN_ANOMALY></meanElements><tleParameters><EPHEMERIS_TYPE>0</EPHEMERIS_TYPE><CLASSIFICATION_TYPE>U</CLASSIFICATION_TYPE><NORAD_CAT_ID>65138</NORAD_CAT_ID><ELEMENT_SET_NO>999</ELEMENT_SET_NO><REV_AT_EPOCH>2147</REV_AT_EPOCH><BSTAR>.49679847E-3</BSTAR><MEAN_MOTION_DOT>.3564E-4</MEAN_MOTION_DOT><MEAN_MOTION_DDOT>0</MEAN_MOTION_DDOT></tleParameters></data></segment></body></omm>
<omm id="CCSDS_OMM_VERS" version="2.0">
<header><CREATION_DATE/><ORIGINATOR/></header><body><segment><metadata><OBJECT_NAME>KUIPER-00100</OBJECT_NAME><OBJECT_ID>2025-171H</OBJECT_ID><CENTER_NAME>EARTH</CENTER_NAME><REF_FRAME>TEME</REF_FRAME><TIME_SYSTEM>UTC</TIME_SYSTEM><MEAN_ELEMENT_THEORY>SGP4</MEAN_ELEMENT_THEORY></metadata><data><meanElements><EPOCH>2025-12-21T16:28:51.885696</EPOCH><MEAN_MOTION>14.84139588</MEAN_MOTION><ECCENTRICITY>.0001583</ECCENTRICITY><INCLINATION>51.8967</INCLINATION><RA_OF_ASC_NODE>135.4539</RA_OF_ASC_NODE><ARG_OF_PERICENTER>326.0518</ARG_OF_PERICENTER><MEAN_ANOMALY>34.0345</MEAN_ANOMALY></meanElements><tleParameters><EPHEMERIS_TYPE>0</EPHEMERIS_TYPE><CLASSIFICATION_TYPE>U</CLASSIFICATION_TYPE><NORAD_CAT_ID>65139</NORAD_CAT_ID><ELEMENT_SET_NO>999</ELEMENT_SET_NO><REV_AT_EPOCH>2144</REV_AT_EPOCH><BSTAR>-.10036251E-2</BSTAR><MEAN_MOTION_DOT>-.8684E-4</MEAN_MOTION_DOT><MEAN_MOTION_DDOT>0</MEAN_MOTION_DDOT></tleParameters></data></segment></body></omm>
<omm id="CCSDS_OMM_VERS" version="2.0">
<header><CREATION_DATE/><ORIGINATOR/></header><body><segment><metadata><OBJECT_NAME>KUIPER-00102</OBJECT_NAME><OBJECT_ID>2025-171J</OBJECT_ID><CENTER_NAME>EARTH</CENTER_NAME><REF_FRAME>TEME</REF_FRAME><TIME_SYSTEM>UTC</TIME_SYSTEM><MEAN_ELEMENT_THEORY>SGP4</MEAN_ELEMENT_THEORY></metadata><data><meanElements><EPOCH>2025-12-22T06:00:02.000160</EPOCH><MEAN_MOTION>14.78373480</MEAN_MOTION><ECCENTRICITY>.00007463</ECCENTRICITY><INCLINATION>51.8976</INCLINATION><RA_OF_ASC_NODE>135.4925</RA_OF_ASC_NODE><ARG_OF_PERICENTER>48.9076</ARG_OF_PERICENTER><MEAN_ANOMALY>96.8826</MEAN_ANOMALY></meanElements><tleParameters><EPHEMERIS_TYPE>0</EPHEMERIS_TYPE><CLASSIFICATION_TYPE>U</CLASSIFICATION_TYPE><NORAD_CAT_ID>65140</NORAD_CAT_ID><ELEMENT_SET_NO>999</ELEMENT_SET_NO><REV_AT_EPOCH>530</REV_AT_EPOCH><BSTAR>.48171171E-2</BSTAR><MEAN_MOTION_DOT>.35358E-3</MEAN_MOTION_DOT><MEAN_MOTION_DDOT>0</MEAN_MOTION_DDOT></tleParameters></data></segment></body></omm>
<omm id="CCSDS_OMM_VERS" version="2.0">
<header><CREATION_DATE/><ORIGINATOR/></header><body><segment><metadata><OBJECT_NAME>KUIPER-00103</OBJECT_NAME><OBJECT_ID>2025-171K</OBJECT_ID><CENTER_NAME>EARTH</CENTER_NAME><REF_FRAME>TEME</REF_FRAME><TIME_SYSTEM>UTC</TIME_SYSTEM><MEAN_ELEMENT_THEORY>SGP4</MEAN_ELEMENT_THEORY></metadata><data><meanElements><EPOCH>2025-12-22T04:09:44.475552</EPOCH><MEAN_MOTION>14.79915459</MEAN_MOTION><ECCENTRICITY>.00056518</ECCENTRICITY><INCLINATION>51.8984</INCLINATION><RA_OF_ASC_NODE>153.3548</RA_OF_ASC_NODE><ARG_OF_PERICENTER>227.4408</ARG_OF_PERICENTER><MEAN_ANOMALY>132.6078</MEAN_ANOMALY></meanElements><tleParameters><EPHEMERIS_TYPE>0</EPHEMERIS_TYPE><CLASSIFICATION_TYPE>U</CLASSIFICATION_TYPE><NORAD_CAT_ID>65141</NORAD_CAT_ID><ELEMENT_SET_NO>999</ELEMENT_SET_NO><REV_AT_EPOCH>2123</REV_AT_EPOCH><BSTAR>.45335375E-3</BSTAR><MEAN_MOTION_DOT>.3235E-4</MEAN_MOTION_DOT><MEAN_MOTION_DDOT>0</MEAN_MOTION_DDOT></tleParameters></data></segment></body></omm>

</ndm>
