KUIPER-00095            
1 65134U 25171C   25355.65778822  .00005410  00000+0  50173-3 0  9998
2 65134  51.8913 134.9857 0004904 220.8975 139.1627 14.95813443 21458
KUIPER-00096            
1 65135U 25171D   25355.81548377  .00017554  00000+0  23239-2 0  9991
2 65135  51.8987 142.4455 0010376 246.2900 113.6974 14.79932677 21363
KUIPER-00097            
1 65136U 25171E   25356.15033091  .00003283  00000+0  45922-3 0  9990
2 65136  51.9001 143.5794 0009773 251.4080 108.5821 14.79942775 21360
KUIPER-00098            
1 65137U 25171F   25355.81011736  .00005409  00000+0  73867-3 0  9996
2 65137  51.8977 147.4718 0007081 226.9466 133.0904 14.79884781 20632
KUIPER-00099            
1 65138U 25171G   25356.12470474  .00003564  00000+0  49680-3 0  9996
2 65138  51.9014 136.0443 0001032 123.4523 236.6538 14.79890499 21479
KUIPER-00100            
1 65139U 25171H   25355.68671164 -.00008684  00000+0 -10036-2 0  9998
2 65139  51.8967 135.4539 0001583 326.0518  34.0345 14.84139588 21445
KUIPER-00102            
1 65140U 25171J   25356.25002315  .00035358  00000+0  48171-2 0  9997
2 65140  51.8976 135.4925 0000746  48.9076  96.8826 14.78373480  5306
KUIPER-00103            
1 65141U 25171K   25356.17343143  .00003235  00000+0  45335-3 0  9995
2 65141  51.8984 153.3548 0005651 227.4408 132.6078 14.79915459 21236
